QIANFAN-41              
1 62242U 24232F   26019.31271604  .00000034  00000+0  33461-4 0  9998
2 62242  88.9998  37.4013 0015932  84.0384 276.2582 13.50982893104324
QIANFAN-42              
1 62243U 24232G   26019.28349509  .00000123  00000+0  46646-4 0  9993
2 62243  88.9993  33.0632 0013682 329.5763  30.4634 14.24507325106715
QIANFAN-43              
1 62244U 24232H   26019.30858929  .00000035  00000+0  35371-4 0  9993
2 62244  89.0002  37.4687 0017471  88.5867 271.7285 13.50981897 72930
QIANFAN-44              
1 62245U 24232J   26019.29623264  .00000037  00000+0  38109-4 0  9998
2 62245  89.0001  37.2801 0015678  86.1174 274.1770 13.50984123104407
QIANFAN-45              
1 62246U 24232K   26019.26339327  .00000041  00000+0  44069-4 0  9997
2 62246  89.0004  37.4313 0016343  85.8358 274.4661 13.50980185104328
QIANFAN-46              
1 62247U 24232L   26019.28802397  .00000040  00000+0  42718-4 0  9990
2 62247  89.0000  37.4963 0016404  90.6577 269.6454 13.50982140104285
QIANFAN-47              
1 62248U 24232M   26019.29217609  .00000036  00000+0  37664-4 0  9997
2 62248  88.9996  37.4273 0016833  89.8941 270.4139 13.50982201104315
QIANFAN-48              
1 62249U 24232N   26019.32915316  .00000031  00000+0  29706-4 0  9995
2 62249  89.0000  37.4269 0019088  92.0647 268.2690 13.50983568104328
